{
  "type": "FeatureCollection",
  "features": [
    {
      "type": "Feature",
      "properties": {
        "norad_id": 51444,
        "name": "CSG-2",
        "group": "resource",
        "lat": 59.1631171229294,
        "lon": 0.05344431179415649,
        "alt_km": 615.9499426873808,
        "timestamp": "2025-12-11T07:02:23.391604+00:00",
        "meta_object_name": "CSG-2",
        "meta_object_id": "2022-008A",
        "meta_epoch": "2025-12-10T22:23:59.477856",
        "meta_mean_motion": 14.82161478,
        "meta_eccentricity": 0.00015149,
        "meta_inclination": 97.8805,
        "meta_ra_of_asc_node": 166.2836,
        "meta_arg_of_pericenter": 83.6917,
        "meta_mean_anomaly": 276.4469,
        "meta_ephemeris_type": 0,
        "meta_classification_type": "U",
        "meta_norad_cat_id": 51444,
        "meta_element_set_no": 999,
        "meta_rev_at_epoch": 20870,
        "meta_bstar": 0.00015063518,
        "meta_mean_motion_dot": 1.147e-05,
        "meta_mean_motion_ddot": 0,
        "tle_line1": "1 51444U 22008A   25344.93332729  .00001147  00000+0  15064-3 0  9997",
        "tle_line2": "2 51444  97.8805 166.2836 0001514  83.6917 276.4469 14.82161478208701"
      },
      "geometry": {
        "type": "Point",
        "coordinates": [
          0.05344431179415649,
          59.1631171229294
        ]
      }
    },
    {
      "type": "Feature",
      "properties": {
        "norad_id": 52912,
        "name": "GAOFEN-12 03",
        "group": "resource",
        "lat": 48.97047445492617,
        "lon": -136.4442894242466,
        "alt_km": 624.6208752732,
        "timestamp": "2025-12-11T07:02:23.391615+00:00",
        "meta_object_name": "GAOFEN-12 03",
        "meta_object_id": "2022-069A",
        "meta_epoch": "2025-12-10T22:42:04.654080",
        "meta_mean_motion": 14.79602911,
        "meta_eccentricity": 0.00022699,
        "meta_inclination": 97.8479,
        "meta_ra_of_asc_node": 232.3364,
        "meta_arg_of_pericenter": 64.3368,
        "meta_mean_anomaly": 295.8078,
        "meta_ephemeris_type": 0,
        "meta_classification_type": "U",
        "meta_norad_cat_id": 52912,
        "meta_element_set_no": 999,
        "meta_rev_at_epoch": 18677,
        "meta_bstar": 0.00026386254,
        "meta_mean_motion_dot": 1.927e-05,
        "meta_mean_motion_ddot": 0,
        "tle_line1": "1 52912U 22069A   25344.94588720  .00001927  00000+0  26386-3 0  9995",
        "tle_line2": "2 52912  97.8479 232.3364 0002269  64.3368 295.8078 14.79602911186775"
      },
      "geometry": {
        "type": "Point",
        "coordinates": [
          -136.4442894242466,
          48.97047445492617
        ]
      }
    },
    {
      "type": "Feature",
      "properties": {
        "norad_id": 54754,
        "name": "SWOT",
        "group": "resource",
        "lat": 72.58080684867973,
        "lon": -26.58330368474565,
        "alt_km": 885.8603971737384,
        "timestamp": "2025-12-11T07:02:23.391625+00:00",
        "meta_object_name": "SWOT",
        "meta_object_id": "2022-173A",
        "meta_epoch": "2025-12-10T22:05:44.960928",
        "meta_mean_motion": 14.00174257,
        "meta_eccentricity": 3.32e-05,
        "meta_inclination": 77.6105,
        "meta_ra_of_asc_node": 289.4452,
        "meta_arg_of_pericenter": 117.6172,
        "meta_mean_anomaly": 242.5013,
        "meta_ephemeris_type": 0,
        "meta_classification_type": "U",
        "meta_norad_cat_id": 54754,
        "meta_element_set_no": 999,
        "meta_rev_at_epoch": 15280,
        "meta_bstar": 3.9544214e-05,
        "meta_mean_motion_dot": 5.6e-07,
        "meta_mean_motion_ddot": 0,
        "tle_line1": "1 54754U 22173A   25344.92065927  .00000056  00000+0  39544-4 0  9997",
        "tle_line2": "2 54754  77.6105 289.4452 0000332 117.6172 242.5013 14.00174257152804"
      },
      "geometry": {
        "type": "Point",
        "coordinates": [
          -26.58330368474565,
          72.58080684867973
        ]
      }
    },
    {
      "type": "Feature",
      "properties": {
        "norad_id": 57654,
        "name": "GAOFEN-12 04",
        "group": "resource",
        "lat": -38.45771726358086,
        "lon": 74.73129703429868,
        "alt_km": 637.5408127386654,
        "timestamp": "2025-12-11T07:02:23.391635+00:00",
        "meta_object_name": "GAOFEN-12 04",
        "meta_object_id": "2023-123A",
        "meta_epoch": "2025-12-10T23:33:44.362944",
        "meta_mean_motion": 14.79691839,
        "meta_eccentricity": 0.000135,
        "meta_inclination": 97.9117,
        "meta_ra_of_asc_node": 260.7657,
        "meta_arg_of_pericenter": 73.589,
        "meta_mean_anomaly": 286.547,
        "meta_ephemeris_type": 0,
        "meta_classification_type": "U",
        "meta_norad_cat_id": 57654,
        "meta_element_set_no": 999,
        "meta_rev_at_epoch": 12479,
        "meta_bstar": 0.00030900475,
        "meta_mean_motion_dot": 2.269e-05,
        "meta_mean_motion_ddot": 0,
        "tle_line1": "1 57654U 23123A   25344.98176346  .00002269  00000+0  30900-3 0  9993",
        "tle_line2": "2 57654  97.9117 260.7657 0001350  73.5890 286.5470 14.79691839124799"
      },
      "geometry": {
        "type": "Point",
        "coordinates": [
          74.73129703429868,
          -38.45771726358086
        ]
      }
    },
    {
      "type": "Feature",
      "properties": {
        "norad_id": 59065,
        "name": "PARS 1",
        "group": "resource",
        "lat": -62.224805851076766,
        "lon": -29.39086234872386,
        "alt_km": 457.1488869001096,
        "timestamp": "2025-12-11T07:02:23.391646+00:00",
        "meta_object_name": "PARS 1",
        "meta_object_id": "2024-039Q",
        "meta_epoch": "2025-12-10T23:31:16.114368",
        "meta_mean_motion": 15.40909486,
        "meta_eccentricity": 0.00126236,
        "meta_inclination": 97.4637,
        "meta_ra_of_asc_node": 315.8758,
        "meta_arg_of_pericenter": 77.474,
        "meta_mean_anomaly": 282.7918,
        "meta_ephemeris_type": 0,
        "meta_classification_type": "U",
        "meta_norad_cat_id": 59065,
        "meta_element_set_no": 999,
        "meta_rev_at_epoch": 9961,
        "meta_bstar": 0.00040264365,
        "meta_mean_motion_dot": 0.00016526,
        "meta_mean_motion_ddot": 0,
        "tle_line1": "1 59065U 24039Q   25344.98004762  .00016526  00000+0  40264-3 0  9995",
        "tle_line2": "2 59065  97.4637 315.8758 0012623  77.4740 282.7918 15.40909486 99611"
      },
      "geometry": {
        "type": "Point",
        "coordinates": [
          -29.39086234872386,
          -62.224805851076766
        ]
      }
    },
    {
      "type": "Feature",
      "properties": {
        "norad_id": 59371,
        "name": "RESURS-P 4",
        "group": "resource",
        "lat": 54.05047329254692,
        "lon": 121.769477618254,
        "alt_km": 464.26930929534683,
        "timestamp": "2025-12-11T07:02:23.391656+00:00",
        "meta_object_name": "RESURS-P 4",
        "meta_object_id": "2024-061A",
        "meta_epoch": "2025-12-10T22:39:27.152928",
        "meta_mean_motion": 15.32062575,
        "meta_eccentricity": 0.00016612,
        "meta_inclination": 97.2543,
        "meta_ra_of_asc_node": 291.3108,
        "meta_arg_of_pericenter": 53.239,
        "meta_mean_anomaly": 306.9004,
        "meta_ephemeris_type": 0,
        "meta_classification_type": "U",
        "meta_norad_cat_id": 59371,
        "meta_element_set_no": 999,
        "meta_rev_at_epoch": 9493,
        "meta_bstar": 0.00020049507,
        "meta_mean_motion_dot": 6.13e-05,
        "meta_mean_motion_ddot": 0,
        "tle_line1": "1 59371U 24061A   25344.94406427  .00006130  00000+0  20050-3 0  9991",
        "tle_line2": "2 59371  97.2543 291.3108 0001661  53.2390 306.9004 15.32062575 94930"
      },
      "geometry": {
        "type": "Point",
        "coordinates": [
          121.769477618254,
          54.05047329254692
        ]
      }
    },
    {
      "type": "Feature",
      "properties": {
        "norad_id": 59625,
        "name": "LEGION 1",
        "group": "resource",
        "lat": 69.95293755697335,
        "lon": 38.71635576294878,
        "alt_km": 510.602250474617,
        "timestamp": "2025-12-11T07:02:23.391686+00:00",
        "meta_object_name": "LEGION 1",
        "meta_object_id": "2024-081A",
        "meta_epoch": "2025-12-10T22:48:29.282688",
        "meta_mean_motion": 15.16450794,
        "meta_eccentricity": 0.00040951,
        "meta_inclination": 97.5211,
        "meta_ra_of_asc_node": 59.6036,
        "meta_arg_of_pericenter": 326.1048,
        "meta_mean_anomaly": 33.9923,
        "meta_ephemeris_type": 0,
        "meta_classification_type": "U",
        "meta_norad_cat_id": 59625,
        "meta_element_set_no": 999,
        "meta_rev_at_epoch": 8900,
        "meta_bstar": 0.00040171663,
        "meta_mean_motion_dot": 7.751e-05,
        "meta_mean_motion_ddot": 0,
        "tle_line1": "1 59625U 24081A   25344.95033892  .00007751  00000+0  40172-3 0  9995",
        "tle_line2": "2 59625  97.5211  59.6036 0004095 326.1048  33.9923 15.16450794 89003"
      },
      "geometry": {
        "type": "Point",
        "coordinates": [
          38.71635576294878,
          69.95293755697335
        ]
      }
    }
  ]
}